#dP2018  7 28  0  0  0.00000000      96 __u+U IGS08 FIT  IAC
## 2011 518400.00000000   900.00000000 58327 0.0000000000000
+   85   C01C02C03C04C05C06C07C08C09C10C11C12C13C14E01E02E03
+        E04E05E07E08E09E11E12E14E18E19E24E26E30G01G02G03G05
+        G06G07G08G09G10G11G12G13G14G15G16G17G18G19G20G21G22
+        G23G24G25G26G27G28G29G30G31G32J01R01R02R03R04R05R07
+        R08R09R10R11R13R14R15R16R17R18R19R20R21R22R23R24R26
++        13 12 13 12 12  8  8  8  8  8  7  8  8  7  7  7  7
++         7  7  7  7  7  7  7  8  7  7  7  7  7  3  3  3  3
++         3  3  3  3  3  3  3  3  3  3  3  3  3  3  3  3  3
++         3  3  3  3  3  3  3  3  3  3  9  5  5  5  5  6  5
++         5  5  5  5  5  5  5  5  5  5  5  5  5  5  5  5  8
%c M  cc GPS ccc cccc cccc cccc cccc ccccc ccccc ccccc ccccc
%c cc cc ccc ccc cccc cccc cccc cccc ccccc ccccc ccccc ccccc
%f  1.2500000  1.025000000  0.00000000000  0.000000000000000
%f  0.0000000  0.000000000  0.00000000000  0.000000000000000
%i    0    0    0    0      0      0      0      0         0
%i    0    0    0    0      0      0      0      0         0
/* INFORMATION & ANALYSIS CENTER (IAC)            FINAL DATA
/* S/V CLOCKS ARE ALIGNED TO GPS & GLONASS TIME RESPECTIVELY
/* USING THE BROADCAST EPHEMERIS                            
/* PCV:IGS14_2000 OL/AL:FES2004  NONE     YN ORB:CoN CLK:CoN
*  2018 07 28  6  0  0.00000000
PC01 -32254.024606  27128.217993    194.062183    396.191009
PC02   4449.646175  41914.437766    902.702850    -62.015683
PC03 -14789.619317  39495.225987    839.480510   -436.978509
PC04 -39618.042572  14409.526663    466.146278   -253.581866
PC05  21856.245169  36051.032287    568.906214    271.012111
PC06 -23886.197140  28190.911092 -20330.977500    124.656041
PC07 -12796.885134  36473.356519 -16145.404691     48.608991
PC08  -8793.322817  20597.791991  35788.733246    458.233458
PC09 -11098.537826  27970.188195 -29472.707574     88.773612
PC10  -2135.845614  41803.818132  -2583.827577   -420.820924
PC11  -8850.586428 -15136.629369 -21639.861638   -610.344906
PC12  13278.182651 -12917.622621 -20850.481856    534.167206
PC13   3710.192876  27578.564795  31760.007221   -198.706040
PC14    845.760110 -22366.190320  16697.636385    309.788704
PE01 -16258.256859  -5763.740642 -24055.154789   -400.250342
PE02  16261.151782   5704.977349  24067.373092     21.221555
PE03  24376.173627  -2539.996921 -16598.938378    -59.315542
PE04 -24096.836193  17183.413269   -533.459484    -84.332906
PE05  10361.448434  13686.693951 -24104.884830    221.248423
PE07   9655.831104 -21853.025396  17495.220647     -9.860049
PE08  23926.094513 -17429.704356    570.875373   6535.207105
PE09  -9545.780933  21843.200608 -17525.110256   6722.442210
PE11   1303.392824  17942.819290  23491.970763   2984.481744
PE12 -19094.758215   7110.064854  21474.465851   4699.309959
PE14  19413.671327   7392.333276  12100.308969   6544.459422
PE18 -19671.903991 -14860.849979 -20720.676611   6026.364224
PE19 -23520.875067   1059.534974  17952.618251    -13.721128
PE24  -1416.320906  28996.525445  -5799.388790   6577.709424
PE26 -20172.332531 -18151.675308 -11820.470949   5659.628052
PE30  12540.997514 -16505.136105  21125.181432   5642.664225
PG01 -20843.224056 -11062.492200  12327.795452    -70.284888
PG02  13630.128358  21739.295121   7879.817125     45.178790
PG03 -15394.474012  -1417.181353  21566.767408    112.536151
PG05   5157.303333  20908.221111 -15515.151199     -3.976020
PG06    214.740208  19157.212432  18413.731460    382.635709
PG07 -15955.841480   3779.547665 -20752.221195    151.534270
PG08 -19876.190219  -7064.678868 -16188.091299   -109.678463
PG09 -25249.110716   7688.635176  -3043.925221    512.742112
PG10  10957.187574 -23721.607980  -4195.908211    188.245981
PG11 -24700.206465  -9031.634194   2369.137503   -727.919221
PG12  12575.572025   7604.114688  21941.387602    318.031759
PG13  11997.951827  12854.185080 -20014.955240    -91.840668
PG14   3749.646030 -15584.858287  21454.103434    -97.653981
PG15  22540.993488   4256.478452 -13930.758218   -349.824067
PG16  -1819.759338 -21494.215673 -15366.764417     16.000506
PG17 -14012.220971  14173.451885  17880.642707    -73.574823
PG18 -20027.678081 -17117.002143   3558.800328     38.888801
PG19  -4962.618364  14806.380764  21211.520131   -416.712659
PG20  14166.163948 -18027.000291 -13448.646491    513.164013
PG21  12834.536261  -8455.218251 -20866.394054   -361.148493
PG22 -13369.460229 -10349.483932  20729.905692   -471.512544
PG23 -25727.349930   -110.090609   7733.458435   -213.791326
PG24  21469.375972  13349.345280   8493.145738    -53.186659
PG25  16384.121740  -8672.543721  18746.843814   -622.835677
PG26   3871.055883 -25602.707474  -5593.601065    -69.853980
PG27  -8719.775078 -13040.036086 -21556.216874    358.162426
PG28 -13606.700309  21971.638885  -5616.020117    734.323557
PG29  26089.252304  -4716.242656  -1579.938462    406.721581
PG30  -8376.159685  13893.088134 -20989.128856     45.065106
PG31  -1208.206378 -20104.588536  17128.425891    104.686610
PG32  13322.606828 -15219.056550  17210.605330   -465.497990
PJ01 -30581.451734  28089.473667  12279.710852   -163.447733
PR01  10123.271271 -19533.566529  12929.499967     29.703536
PR02  -6320.461650  -9102.941244  23014.814908    321.851452
PR03 -17576.384771   5808.303546  17613.973751    138.891696
PR04 -18408.495857  17605.496938   1521.172025    270.171480
PR05  -8200.659869  18980.034169 -14935.891019    -47.141680
PR07  17702.175249  -6172.377273 -17240.904718    -43.451807
PR08  18582.818519 -17342.087154  -2071.516743     22.071200
PR09  10673.259516  20584.679267  10565.078101     20.325648
PR10  11846.254143   5677.165805  21829.157746     28.687604
PR11   6606.198100 -13558.797083  20603.737135    -35.939204
PR13 -10851.439655 -20624.023127 -10403.777827    -12.965300
PR14 -12143.581202  -5810.487791 -21657.016933     29.476085
PR15  -8136.307788   9423.964339 -22268.751509    -13.781846
PR16   2725.834174  24029.092841  -8295.319708     97.947103
PR17 -24762.630433  -5231.235513   3026.199271    151.412938
PR18 -17790.606330   3683.745312  17939.716979    204.601657
PR19   -921.920164  10628.452508  23163.130217    -57.159263
PR20  17683.936047  11784.955789  14072.800563   -346.694086
PR21  24784.616975   5042.669252  -3422.537889      4.985146
PR22  15936.180726  -4728.306583 -19301.784955    -57.186061
PR23  -3666.761908 -11560.847443 -22453.987557    168.442793
PR24 -18693.489785 -11305.488148 -13210.650947   -169.411248
PR26  17133.630388  11649.291968  14902.342254     37.182038
EOF
